[{"OBJECT_NAME":"STARLINK-2534","OBJECT_ID":"2021-036AM","EPOCH":"2026-03-09T07:49:04.034496","MEAN_MOTION":15.30215725,"ECCENTRICITY":0.00013222,"INCLINATION":53.1609,"RA_OF_ASC_NODE":90.3234,"ARG_OF_PERICENTER":82.9471,"MEAN_ANOMALY":277.168,"EPHEMERIS_TYPE":0,"CLASSIFICATION_TYPE":"U","NORAD_CAT_ID":48311,"ELEMENT_SET_NO":999,"REV_AT_EPOCH":26816,"BSTAR":0.00013616147,"MEAN_MOTION_DOT":3.677e-5,"MEAN_MOTION_DDOT":0},{"OBJECT_NAME":"JILIN-1 GAOFEN 03D50","OBJECT_ID":"2022-167J","EPOCH":"2026-03-09T22:35:59.947584","MEAN_MOTION":15.32279726,"ECCENTRICITY":0.00065764,"INCLINATION":97.6731,"RA_OF_ASC_NODE":232.9458,"ARG_OF_PERICENTER":101.1473,"MEAN_ANOMALY":259.0507,"EPHEMERIS_TYPE":0,"CLASSIFICATION_TYPE":"U","NORAD_CAT_ID":54690,"ELEMENT_SET_NO":999,"REV_AT_EPOCH":18014,"BSTAR":0.00049467973,"MEAN_MOTION_DOT":0.00015359,"MEAN_MOTION_DDOT":0}]
